{
  "version": 1,
  "fetchedAt": "2026-06-16T15:59:31.869Z",
  "source": "celestrak-gp",
  "counts": {
    "station": 25,
    "satellite": 400,
    "debris": 111
  },
  "objects": [
    {
      "id": "40549",
      "name": "BEIDOU-3S IGSO-1S (C31)",
      "noradId": 40549,
      "line1": "1 40549U 15019A   26166.84191791 -.00000176  00000+0  00000+0 0  9992",
      "line2": "2 40549  49.1979 295.4779 0039128 191.2662 172.0144  1.00250248 41068",
      "category": "satellite"
    },
    {
      "id": "40730",
      "name": "GPS BIIF-10 (PRN 08)",
      "noradId": 40730,
      "line1": "1 40730U 15033A   26166.72525519 -.00000016  00000+0  00000+0 0  9999",
      "line2": "2 40730  53.9835 267.1468 0115059  30.2204 330.4754  2.00556275 79964",
      "category": "satellite"
    },
    {
      "id": "40748",
      "name": "BEIDOU-3S M2S (C58)",
      "noradId": 40748,
      "line1": "1 40748U 15037A   26167.24943955 -.00000070  00000+0  00000+0 0  9998",
      "line2": "2 40748  54.8724 302.0792 0008379 259.1051 100.7870  1.86232022 74109",
      "category": "satellite"
    },
    {
      "id": "40749",
      "name": "BEIDOU-3S M1S (C57)",
      "noradId": 40749,
      "line1": "1 40749U 15037B   26166.38318008 -.00000069  00000+0  00000+0 0  9996",
      "line2": "2 40749  54.8691 302.0961 0003458  61.7517 298.2671  1.86254745 74094",
      "category": "satellite"
    },
    {
      "id": "40889",
      "name": "GSAT0205 (GALILEO 9)",
      "noradId": 40889,
      "line1": "1 40889U 15045A   26144.30399159 -.00000014  00000+0  00000+0 0  9994",
      "line2": "2 40889  54.9357 222.4171 0006405 263.0112  96.9692  1.67409242 66562",
      "category": "satellite"
    },
    {
      "id": "40890",
      "name": "GSAT0206 (GALILEO 10)",
      "noradId": 40890,
      "line1": "1 40890U 15045B   26166.69756315  .00000052  00000+0  00000+0 0  9994",
      "line2": "2 40890  54.9450 221.6455 0001791 333.6365  26.4548  1.70473766 67016",
      "category": "satellite"
    },
    {
      "id": "40938",
      "name": "BEIDOU-3S IGSO-2S (C56)",
      "noradId": 40938,
      "line1": "1 40938U 15053A   26166.82613653 -.00000128  00000+0  00000+0 0  9993",
      "line2": "2 40938  49.2239 258.7990 0065676 192.1192 205.8375  1.00258936 39343",
      "category": "satellite"
    },
    {
      "id": "41019",
      "name": "GPS BIIF-11 (PRN 10)",
      "noradId": 41019,
      "line1": "1 41019U 15062A   26166.78141998 -.00000067  00000+0  00000+0 0  9999",
      "line2": "2 41019  56.9584  30.8653 0111878 231.0655 127.9888  2.00566865 77800",
      "category": "satellite"
    },
    {
      "id": "41028",
      "name": "GSAT-15 (GAGAN/PRN 139)",
      "noradId": 41028,
      "line1": "1 41028U 15065A   26166.34889123 -.00000254  00000+0  00000+0 0  9991",
      "line2": "2 41028   0.0749 265.5559 0004058 161.7787  55.3896  1.00270843 38785",
      "category": "satellite"
    },
    {
      "id": "41174",
      "name": "GSAT0209 (GALILEO 12)",
      "noradId": 41174,
      "line1": "1 41174U 15079A   26166.27899133 -.00000013  00000+0  00000+0 0  9995",
      "line2": "2 41174  55.8263 101.3143 0005316 342.9908  16.9497  1.70473583 64746",
      "category": "satellite"
    },
    {
      "id": "41175",
      "name": "GSAT0208 (GALILEO 11)",
      "noradId": 41175,
      "line1": "1 41175U 15079B   26165.32611699 -.00000010  00000+0  00000+0 0  9997",
      "line2": "2 41175  55.8243 101.3373 0004862 343.1705  16.7693  1.70473576 65146",
      "category": "satellite"
    },
    {
      "id": "41241",
      "name": "IRNSS-1E",
      "noradId": 41241,
      "line1": "1 41241U 16003A   26165.65025189 -.00000320  00000+0  00000+0 0  9992",
      "line2": "2 41241  33.2222  59.7855 0023517 150.0031  38.8029  1.00279169 38056",
      "category": "satellite"
    },
    {
      "id": "41328",
      "name": "GPS BIIF-12 (PRN 32)",
      "noradId": 41328,
      "line1": "1 41328U 16007A   26161.88615663 -.00000012  00000+0  00000+0 0  9993",
      "line2": "2 41328  55.5202  89.7095 0096051 247.3753 111.5952  2.00551966 75717",
      "category": "satellite"
    },
    {
      "id": "41330",
      "name": "COSMOS 2514 (751)",
      "noradId": 41330,
      "line1": "1 41330U 16008A   26166.87737841 -.00000054  00000+0  00000+0 0  9990",
      "line2": "2 41330  65.0225 313.0514 0011236 197.9277 162.0167  2.13102508 80592",
      "category": "satellite"
    },
    {
      "id": "41434",
      "name": "BEIDOU-2 IGSO-6 (C13)",
      "noradId": 41434,
      "line1": "1 41434U 16021A   26167.12386227 -.00000150  00000+0  00000+0 0  9994",
      "line2": "2 41434  60.2243  38.0497 0057184 231.4868 132.3999  1.00259474 37472",
      "category": "satellite"
    },
    {
      "id": "41469",
      "name": "IRNSS-1G",
      "noradId": 41469,
      "line1": "1 41469U 16027A   26166.78365049 -.00000337  00000+0  00000+0 0  9995",
      "line2": "2 41469   5.1946  97.5053 0007544 354.7633 223.4187  1.00266762 37165",
      "category": "satellite"
    },
    {
      "id": "41549",
      "name": "GSAT0211 (GALILEO 14)",
      "noradId": 41549,
      "line1": "1 41549U 16030A   26165.45012091  .00000059  00000+0  00000+0 0  9997",
      "line2": "2 41549  55.0959 221.7703 0002887 323.8922  36.1904  1.70473900 62624",
      "category": "satellite"
    },
    {
      "id": "41550",
      "name": "GSAT0210 (GALILEO 13)",
      "noradId": 41550,
      "line1": "1 41550U 16030B   26165.70738424  .00000058  00000+0  00000+0 0  9991",
      "line2": "2 41550  55.0955 221.7612 0004648 244.9793 115.0745  1.70473923 62622",
      "category": "satellite"
    },
    {
      "id": "41586",
      "name": "BEIDOU-2 G7 (C03)",
      "noradId": 41586,
      "line1": "1 41586U 16037A   26167.06512367 -.00000354  00000+0  00000+0 0  9994",
      "line2": "2 41586   1.7177  69.3744 0006517 355.9793 332.8617  1.00273948  6877",
      "category": "satellite"
    },
    {
      "id": "41589",
      "name": "EUTELSAT 117 WEST B (W*)",
      "noradId": 41589,
      "line1": "1 41589U 16038B   26166.01642035 -.00000006  00000+0  00000+0 0  9992",
      "line2": "2 41589   0.0044 166.0114 0000447 257.2085  88.9985  1.00269365 36648",
      "category": "satellite"
    },
    {
      "id": "41859",
      "name": "GSAT0207 (GALILEO 15)",
      "noradId": 41859,
      "line1": "1 41859U 16069A   26166.57222480 -.00000014  00000+0  00000+0 0  9994",
      "line2": "2 41859  55.4979 101.1309 0005290 329.9207  30.0086  1.70473545 59378",
      "category": "satellite"
    },
    {
      "id": "41860",
      "name": "GSAT0212 (GALILEO 16)",
      "noradId": 41860,
      "line1": "1 41860U 16069B   26165.25248100 -.00000011  00000+0  00000+0 0  9994",
      "line2": "2 41860  55.4947 101.1626 0004642 358.3825   1.5720  1.70473713 59600",
      "category": "satellite"
    },
    {
      "id": "41861",
      "name": "GSAT0213 (GALILEO 17)",
      "noradId": 41861,
      "line1": "1 41861U 16069C   26166.20630291 -.00000013  00000+0  00000+0 0  9999",
      "line2": "2 41861  55.4975 101.1440 0004958 312.6321  47.2844  1.70474116 59488",
      "category": "satellite"
    },
    {
      "id": "41862",
      "name": "GSAT0214 (GALILEO 18)",
      "noradId": 41862,
      "line1": "1 41862U 16069D   26165.17933449 -.00000010  00000+0  00000+0 0  9993",
      "line2": "2 41862  55.4956 101.1651 0004255 319.5735  40.3509  1.70473798 59596",
      "category": "satellite"
    },
    {
      "id": "42709",
      "name": "SES-15 (WAAS/PRN 133)",
      "noradId": 42709,
      "line1": "1 42709U 17026A   26167.29932418  .00000060  00000+0  00000+0 0  9992",
      "line2": "2 42709   0.0192 337.0750 0000398  53.9818 212.0868  1.00267992  7421",
      "category": "satellite"
    },
    {
      "id": "42738",
      "name": "QZS-2 (QZSS/PRN 194)",
      "noradId": 42738,
      "line1": "1 42738U 17028A   26166.51989272 -.00000144  00000+0  00000+0 0  9994",
      "line2": "2 42738  39.4302 243.1796 0760513 269.2356  80.1810  1.00284423  7609",
      "category": "satellite"
    },
    {
      "id": "42917",
      "name": "QZS-3 (QZSS/PRN 199)",
      "noradId": 42917,
      "line1": "1 42917U 17048A   26167.21088981 -.00000348  00000+0  00000+0 0  9996",
      "line2": "2 42917   0.0672 171.8370 0001831 269.9962  25.5179  1.00276392 32254",
      "category": "satellite"
    },
    {
      "id": "42939",
      "name": "COSMOS 2522 (752)",
      "noradId": 42939,
      "line1": "1 42939U 17055A   26167.18444435  .00000077  00000+0  00000+0 0  9992",
      "line2": "2 42939  64.0787 191.9186 0010811 240.4183 119.5344  2.13101765 67959",
      "category": "satellite"
    },
    {
      "id": "42965",
      "name": "QZS-4 (QZSS/PRN 195)",
      "noradId": 42965,
      "line1": "1 42965U 17062A   26166.35591125 -.00000342  00000+0  00000+0 0  9992",
      "line2": "2 42965  40.1089 343.5053 0745223 271.7370 273.6485  1.00250711 31784",
      "category": "satellite"
    },
    {
      "id": "43001",
      "name": "BEIDOU-3 M1 (C19)",
      "noradId": 43001,
      "line1": "1 43001U 17069A   26167.05913703 -.00000050  00000+0  00000+0 0  9995",
      "line2": "2 43001  56.6914  63.1220 0010416 325.8468  34.1241  1.86230800 58582",
      "category": "satellite"
    },
    {
      "id": "43002",
      "name": "BEIDOU-3 M2 (C20)",
      "noradId": 43002,
      "line1": "1 43002U 17069B   26166.99787615 -.00000050  00000+0  00000+0 0  9999",
      "line2": "2 43002  56.6897  63.1605 0009202 351.0266   8.9945  1.86230738 58577",
      "category": "satellite"
    }
  ]
}